NORAD_CAT_ID,OBJECT_NAME,OBJECT_TYPE,EPOCH,MEAN_MOTION,ECCENTRICITY,INCLINATION,RA_OF_ASC_NODE,ARG_OF_PERICENTER,MEAN_ANOMALY,BSTAR,MEAN_MOTION_DOT,MEAN_MOTION_DDOT,TLE_LINE0,TLE_LINE1,TLE_LINE2,SEMIMAJOR_AXIS,PERIOD,APOGEE,PERIGEE,DECAYED
53535.0,STARLINK-4138,PAYLOAD,2023-10-27 10:15:41,15.08858711,0.0001608,53.2174,353.9463,93.4557,266.6619,0.0002566,3.8e-05,0.0,0 STARLINK-4138,1 53535U 22101J   23300.42756142  .00003800  00000-0  25660-3 0  9999,2 53535  53.2174 353.9463 0001608  93.4557 266.6619 15.08858711 65692,6917.823,95.436,540.801,538.576,0.0
53535.0,STARLINK-4138,PAYLOAD,2023-10-28 10:06:29,15.08835959,0.0001591,53.2171,349.4872,90.4284,269.689,-2.4906e-05,-6.84e-06,0.0,0 STARLINK-4138,1 53535U 22101J   23301.42117227 -.00000684  00000-0 -24906-4 0  9997,2 53535  53.2171 349.4872 0001591  90.4284 269.6890 15.08835959 65848,6917.893,95.438,540.858,538.657,0.0
53535.0,STARLINK-4138,PAYLOAD,2023-10-28 13:17:15,15.0883896,0.0001569,53.2171,348.8912,94.2255,265.8917,5.5111e-05,5.89e-06,0.0,0 STARLINK-4138,1 53535U 22101J   23301.55365183  .00000589  00000-0  55111-4 0  9991,2 53535  53.2171 348.8912 0001569  94.2255 265.8917 15.08838960 65866,6917.884,95.438,540.834,538.663,0.0
53535.0,STARLINK-4138,PAYLOAD,2023-10-29 09:57:15,15.08854,0.0001564,53.2173,345.0257,92.29,267.8271,0.00053358,8.217e-05,0.0,0 STARLINK-4138,1 53535U 22101J   23302.41476847  .00008217  00000-0  53358-3 0  9993,2 53535  53.2173 345.0257 0001564  92.2900 267.8271 15.08854000 65991,6917.838,95.437,540.785,538.621,0.0
53535.0,STARLINK-4138,PAYLOAD,2023-10-29 19:29:35,15.0884188,0.0001602,53.2177,343.2411,93.0721,267.0454,0.00053876,8.297e-05,0.0,0 STARLINK-4138,1 53535U 22101J   23302.81221232  .00008297  00000-0  53876-3 0  9996,2 53535  53.2177 343.2411 0001602  93.0721 267.0454 15.08841880 66055,6917.875,95.437,540.848,538.631,0.0
53535.0,STARLINK-4138,PAYLOAD,2023-10-30 03:26:31,15.088407,0.0001949,53.2187,341.7568,98.7944,261.3269,-2.358e-05,-6.63e-06,0.0,0 STARLINK-4138,1 53535U 22101J   23303.14341584 -.00000663  00000-0 -23580-4 0  9997,2 53535  53.2187 341.7568 0001949  98.7944 261.3269 15.08840700 66102,6917.878,95.438,541.092,538.395,0.0
53535.0,STARLINK-4138,PAYLOAD,2023-10-30 09:48:03,15.08836944,0.0001712,53.219,340.5678,99.3288,260.7897,0.00017517,2.501e-05,0.0,0 STARLINK-4138,1 53535U 22101J   23303.40837573  .00002501  00000-0  17517-3 0  9997,2 53535  53.2190 340.5678 0001712  99.3288 260.7897 15.08836944 66140,6917.89,95.438,540.939,538.57,0.0
53535.0,STARLINK-4138,PAYLOAD,2023-10-31 11:14:14,15.08837337,0.0001809,53.2184,335.8076,94.8536,265.2663,-7.4315e-05,-1.471e-05,0.0,0 STARLINK-4138,1 53535U 22101J   23304.46821977 -.00001471  00000-0 -74315-4 0  9992,2 53535  53.2184 335.8076 0001809  94.8536 265.2663 15.08837337 66301,6917.889,95.438,541.005,538.502,0.0
53535.0,STARLINK-4138,PAYLOAD,2023-10-31 19:11:09,15.08838589,0.0001713,53.2182,334.3193,90.81,269.3089,4.4343e-07,-2.81e-06,0.0,0 STARLINK-4138,1 53535U 22101J   23304.79941988 -.00000281  00000-0  44343-6 0  9990,2 53535  53.2182 334.3193 0001713  90.8100 269.3089 15.08838589 66352,6917.885,95.438,540.935,538.565,0.0
53535.0,STARLINK-4138,PAYLOAD,2023-11-01 11:05:01,15.08846242,0.0001777,53.2176,331.3453,97.5137,262.6057,0.0003264,4.911e-05,0.0,0 STARLINK-4138,1 53535U 22101J   23305.46181928  .00004911  00000-0  32640-3 0  9992,2 53535  53.2176 331.3453 0001777  97.5137 262.6057 15.08846242 66452,6917.861,95.437,540.956,538.497,0.0
53535.0,STARLINK-4138,PAYLOAD,2023-11-02 01:23:29,15.0883936,0.0001818,53.2176,328.6707,88.4293,271.6907,0.00018157,2.603e-05,0.0,0 STARLINK-4138,1 53535U 22101J   23306.05798413  .00002603  00000-0  18157-3 0  9994,2 53535  53.2176 328.6707 0001818  88.4293 271.6907 15.08839360 66548,6917.882,95.438,541.005,538.49,0.0
53535.0,STARLINK-4138,PAYLOAD,2023-11-02 09:20:25,15.08847335,0.0001744,53.2172,327.1836,89.0934,271.0258,0.00027596,4.107e-05,0.0,0 STARLINK-4138,1 53535U 22101J   23306.38918081  .00004107  00000-0  27596-3 0  9993,2 53535  53.2172 327.1836 0001744  89.0934 271.0258 15.08847335 66597,6917.858,95.437,540.929,538.516,0.0
53535.0,STARLINK-4138,PAYLOAD,2023-11-02 18:52:44,15.08845472,0.00017,53.2169,325.4,91.218,268.9007,0.00018217,2.613e-05,0.0,0 STARLINK-4138,1 53535U 22101J   23306.78662099  .00002613  00000-0  18217-3 0  9992,2 53535  53.2169 325.4000 0001700  91.2180 268.9007 15.08845472 66651,6917.864,95.437,540.905,538.553,0.0
53535.0,STARLINK-4138,PAYLOAD,2023-11-03 07:35:48,15.08847666,0.0001664,53.2173,323.019,92.0314,268.0868,0.00014526,2.025e-05,0.0,0 STARLINK-4138,1 53535U 22101J   23307.31653841  .00002025  00000-0  14526-3 0  9993,2 53535  53.2173 323.0190 0001664  92.0314 268.0868 15.08847666 66739,6917.857,95.437,540.873,538.571,0.0
53535.0,STARLINK-4138,PAYLOAD,2023-11-04 04:15:50,15.08841363,0.0001698,53.2184,319.1542,95.5976,264.5209,7.6458e-05,9.29e-06,0.0,0 STARLINK-4138,1 53535U 22101J   23308.17766272  .00000929  00000-0  76458-4 0  9995,2 53535  53.2184 319.1542 0001698  95.5976 264.5209 15.08841363 66869,6917.876,95.437,540.916,538.567,0.0
53535.0,STARLINK-4138,PAYLOAD,2023-11-04 10:37:22,15.08846929,0.0001595,53.2177,317.9642,93.4665,266.651,0.00012485,1.7e-05,0.0,0 STARLINK-4138,1 53535U 22101J   23308.44261942  .00001700  00000-0  12485-3 0  9996,2 53535  53.2177 317.9642 0001595  93.4665 266.6510 15.08846929 66902,6917.859,95.437,540.828,538.621,0.0
53535.0,STARLINK-4138,PAYLOAD,2023-11-05 10:28:09,15.08848492,0.000179,53.2176,313.4997,105.621,254.4979,0.00022872,3.355e-05,0.0,0 STARLINK-4138,1 53535U 22101J   23309.43621911  .00003355  00000-0  22872-3 0  9991,2 53535  53.2176 313.4997 0001790 105.6210 254.4979 15.08848492 67052,6917.854,95.437,540.958,538.481,0.0
53535.0,STARLINK-4138,PAYLOAD,2023-11-06 07:08:08,15.08876806,0.0001479,53.2169,309.6371,92.0109,268.1053,0.00068589,0.00010656,0.0,0 STARLINK-4138,1 53535U 22101J   23310.29732453  .00010656  00000-0  68589-3 0  9998,2 53535  53.2169 309.6371 0001479  92.0109 268.1053 15.08876806 67186,6917.768,95.435,540.656,538.61,0.0
53535.0,STARLINK-4138,PAYLOAD,2023-11-07 03:48:11,15.0880904,0.0001306,53.2174,305.7733,97.1485,262.9655,-0.00070669,-0.00011508,0.0,0 STARLINK-4138,1 53535U 22101J   23311.15846847 -.00011508  00000-0 -70669-3 0  9998,2 53535  53.2174 305.7733 0001306  97.1485 262.9655 15.08809040 67314,6917.975,95.44,540.744,538.937,0.0
53535.0,STARLINK-4138,PAYLOAD,2023-11-07 06:58:58,15.0881413,0.0001186,53.2167,305.1791,93.4593,266.6535,-0.00053069,-8.718e-05,0.0,0 STARLINK-4138,1 53535U 22101J   23311.29094912 -.00008718  00000-0 -53069-3 0  9995,2 53535  53.2167 305.1791 0001186  93.4593 266.6535 15.08814130 67335,6917.959,95.439,540.645,539.004,0.0
53535.0,STARLINK-4138,PAYLOAD,2023-11-07 16:31:17,15.0881669,0.0001172,53.2171,303.394,93.7406,266.372,-0.00029128,-4.917e-05,0.0,0 STARLINK-4138,1 53535U 22101J   23311.68839345 -.00004917  00000-0 -29128-3 0  9991,2 53535  53.2171 303.3940 0001172  93.7406 266.3720 15.08816690 67399,6917.952,95.439,540.627,539.006,0.0
53535.0,STARLINK-4138,PAYLOAD,2023-11-08 03:38:59,15.08832734,0.0001153,53.217,301.3128,91.0627,269.0497,5.0009e-05,5.08e-06,0.0,0 STARLINK-4138,1 53535U 22101J   23312.15207312  .00000508  00000-0  50009-4 0  9990,2 53535  53.2170 301.3128 0001153  91.0627 269.0497 15.08832734 67465,6917.903,95.438,540.565,538.97,0.0
53535.0,STARLINK-4138,PAYLOAD,2023-11-08 08:25:08,15.08843437,0.0001187,53.2166,300.4215,102.4273,257.6852,0.00031689,4.759e-05,0.0,0 STARLINK-4138,1 53535U 22101J   23312.35079026  .00004759  00000-0  31689-3 0  9995,2 53535  53.2166 300.4215 0001187 102.4273 257.6852 15.08843437 67491,6917.87,95.437,540.556,538.914,0.0
53535.0,STARLINK-4138,PAYLOAD,2023-11-09 03:29:46,15.08843403,0.0001016,53.217,296.8519,96.1845,263.9263,0.00052511,8.08e-05,0.0,0 STARLINK-4138,1 53535U 22101J   23313.14567332  .00008080  00000-0  52511-3 0  9993,2 53535  53.2170 296.8519 0001016  96.1845 263.9263 15.08843403 67619,6917.87,95.437,540.438,539.032,0.0
53535.0,STARLINK-4138,PAYLOAD,2023-11-09 06:40:32,15.08852997,0.0001066,53.2172,296.2575,97.3117,262.7997,0.00064828,0.00010048,0.0,0 STARLINK-4138,1 53535U 22101J   23313.27814823  .00010048  00000-0  64828-3 0  9998,2 53535  53.2172 296.2575 0001066  97.3117 262.7997 15.08852997 67638,6917.841,95.437,540.443,538.968,0.0
53535.0,STARLINK-4138,PAYLOAD,2023-11-09 16:12:51,15.08846128,0.000119,53.2173,294.4735,84.0695,276.0433,0.00032891,4.951e-05,0.0,0 STARLINK-4138,1 53535U 22101J   23313.67559065  .00004951  00000-0  32891-3 0  9997,2 53535  53.2173 294.4735 0001190  84.0695 276.0433 15.08846128 67697,6917.862,95.437,540.55,538.903,0.0
53535.0,STARLINK-4138,PAYLOAD,2023-11-10 08:06:41,15.08851749,0.0001236,53.2167,291.4951,100.3285,259.7847,6.8847e-05,8.08e-06,0.0,0 STARLINK-4138,1 53535U 22101J   23314.33798417  .00000808  00000-0  68847-4 0  9995,2 53535  53.2167 291.4951 0001236 100.3285 259.7847 15.08851749 67798,6917.844,95.437,540.565,538.854,0.0
53535.0,STARLINK-4138,PAYLOAD,2023-11-10 16:03:37,15.08843201,0.0001513,53.2176,290.0079,106.727,253.3888,-4.4098e-05,-9.9e-06,0.0,0 STARLINK-4138,1 53535U 22101J   23314.66918763 -.00000990  00000-0 -44098-4 0  9995,2 53535  53.2176 290.0079 0001513 106.7270 253.3888 15.08843201 67841,6917.871,95.437,540.782,538.689,0.0
53535.0,STARLINK-4138,PAYLOAD,2023-11-11 04:46:42,15.08846324,0.0001585,53.2186,287.63,99.5445,260.5727,-6.8445e-05,-1.377e-05,0.0,0 STARLINK-4138,1 53535U 22101J   23315.19910599 -.00001377  00000-0 -68445-4 0  9995,2 53535  53.2186 287.6300 0001585  99.5445 260.5727 15.08846324 67923,6917.861,95.437,540.823,538.63,0.0
53535.0,STARLINK-4138,PAYLOAD,2023-11-11 15:54:25,15.0883903,0.0001622,53.2183,285.5521,90.474,269.6438,6.4202e-07,-2.78e-06,0.0,0 STARLINK-4138,1 53535U 22101J   23315.66279121 -.00000278  00000-0  64202-6 0  9993,2 53535  53.2183 285.5521 0001622  90.4740 269.6438 15.08839030 67994,6917.883,95.438,540.87,538.626,0.0
